STARLINK-5812           
1 55774U 23028AK  26068.81954901  .00001706  00000+0  15065-3 0  9995
2 55774  69.9995 224.0828 0002870 264.2118  95.8714 14.98342308166553
QPS-SAR-11 (YAMATSUMI-I)
1 64340U 25125A   26068.25519236  .00007204  00000+0  57385-3 0  9990
2 64340  42.0098  22.3823 0010044 210.0400 149.9850 15.00627459 40603
